CALSPHERE 1             
1 00900U 64063C   22033.50743763  .00000394  00000+0  41094-3 0  9999
2 00900  90.1670  38.4599 0029177  69.3237  79.9369 13.73672903852131
CALSPHERE 2             
1 00902U 64063E   22032.94199326  .00000033  00000+0  35851-4 0  9993
2 00902  90.1789  41.4365 0018451 175.0892 250.8203 13.52705845640450
LCS 1                   
1 01361U 65034C   22032.90700573  .00000013  00000+0  57701-3 0  9995
2 01361  32.1461   7.1259 0013350 118.1471 242.0376  9.89300570 51808
TEMPSAT 1               
1 01512U 65065E   22032.78549844  .00000030  00000+0  40840-4 0  9991
2 01512  89.9019 219.8247 0071410  52.4994 319.2010 13.33444845747290
CALSPHERE 4A            
1 01520U 65065H   22032.72759961  .00000095  00000+0  16811-3 0  9998
2 01520  90.0044 130.2077 0067646 286.0314 244.9756 13.35867651749530
OPS 5712 (P/L 160)      
1 02826U 67053A   22033.55818716  .00001351  00000+0  36472-3 0  9994
2 02826  69.9262 245.4095 0007550 204.2552 155.8227 14.49963623833674
OPS 5712 (P/L 153)      
1 02874U 67053H   22033.11385997  .00000003  00000+0  40869-4 0  9998
2 02874  69.9743 295.0287 0004743 121.2142 238.9429 13.96386973784411
SURCAL 150B             
1 02909U 67053J   22033.47396627  .00002558  00000+0  51128-3 0  9994
2 02909  69.9464 241.5293 0006724 232.0369 128.0165 14.63015357844363
RIGIDSPHERE 2 (LCS 4)   
1 05398U 71067E   22032.84614309  .00000314  00000+0  10298-3 0  9990
2 05398  87.6178  60.4017 0065484 112.0156 248.8015 14.34100587644820
COSMOS 2493 (SKRL-756 1)
1 39490U 13078A   22033.46297587  .00001063  00000+0  11010-3 0  9997
2 39490  82.4196   3.5160 0017116 179.4440 180.6800 14.89027288439937
COSMOS 2494 (SKRL-756 2)
1 39491U 13078B   22033.43302563  .00001133  00000+0  11322-3 0  9990
2 39491  82.4199 357.6152 0022355 157.9811 202.2373 14.90440363440224
